NORAD_CAT_ID,OBJECT_NAME,OBJECT_TYPE,EPOCH,MEAN_MOTION,ECCENTRICITY,INCLINATION,RA_OF_ASC_NODE,ARG_OF_PERICENTER,MEAN_ANOMALY,BSTAR,MEAN_MOTION_DOT,MEAN_MOTION_DDOT,TLE_LINE0,TLE_LINE1,TLE_LINE2,SEMIMAJOR_AXIS,PERIOD,APOGEE,PERIGEE,DECAYED
54172.0,STARLINK-5117,PAYLOAD,2024-04-30 19:49:44,15.08850501,0.0001433,53.2166,167.1413,95.1812,264.9343,0.00020928,3.045e-05,0.0,0 STARLINK-5117,1 54172U 22141R   24121.82621197  .00003045  00000-0  20928-3 0  9991,2 54172  53.2166 167.1413 0001433  95.1812 264.9343 15.08850501 83526,6917.848,95.437,540.705,538.722,0.0
54172.0,STARLINK-5117,PAYLOAD,2024-05-01 11:43:37,15.0883194,0.000148,53.2182,164.1674,95.5115,264.6046,3.5848e-05,2.82e-06,0.0,0 STARLINK-5117,1 54172U 22141R   24122.48862631  .00000282  00000-0  35848-4 0  9992,2 54172  53.2182 164.1674 0001480  95.5115 264.6046 15.08831940 83626,6917.905,95.438,540.794,538.746,0.0
54172.0,STARLINK-5117,PAYLOAD,2024-05-01 19:40:32,15.08844906,0.0001374,53.217,162.6807,94.9939,265.121,7.5e-05,9.06e-06,0.0,0 STARLINK-5117,1 54172U 22141R   24122.81981649  .00000906  00000-0  75000-4 0  9997,2 54172  53.2170 162.6807 0001374  94.9939 265.1210 15.08844906 83673,6917.865,95.437,540.681,538.78,0.0
54172.0,STARLINK-5117,PAYLOAD,2024-05-02 11:34:23,15.08845371,0.0001387,53.2164,159.7069,94.3187,265.7964,6.9131e-05,8.13e-06,0.0,0 STARLINK-5117,1 54172U 22141R   24123.48221558  .00000813  00000-0  69131-4 0  9992,2 54172  53.2164 159.7069 0001387  94.3187 265.7964 15.08845371 83776,6917.864,95.437,540.688,538.769,0.0
54172.0,STARLINK-5117,PAYLOAD,2024-05-03 01:52:51,15.08846079,0.0001391,53.2149,157.0291,83.0687,277.0463,0.00022459,3.289e-05,0.0,0 STARLINK-5117,1 54172U 22141R   24124.07837125  .00003289  00000-0  22459-3 0  9992,2 54172  53.2149 157.0291 0001391  83.0687 277.0463 15.08846079 83868,6917.862,95.437,540.689,538.765,0.0
54172.0,STARLINK-5117,PAYLOAD,2024-05-03 09:49:45,15.08876505,0.0001205,53.2149,155.5416,89.4658,270.6472,-0.00057161,-9.383e-05,0.0,0 STARLINK-5117,1 54172U 22141R   24124.40955634 -.00009383  00000-0 -57161-3 0  9996,2 54172  53.2149 155.5416 0001205  89.4658 270.6472 15.08876505 83914,6917.769,95.435,540.467,538.8,0.0
54172.0,STARLINK-5117,PAYLOAD,2024-05-03 19:22:05,15.08851305,0.000134,53.2148,153.7579,83.3754,276.7391,0.00018429,2.647e-05,0.0,0 STARLINK-5117,1 54172U 22141R   24124.80700647  .00002647  00000-0  18429-3 0  9990,2 54172  53.2148 153.7579 0001340  83.3754 276.7391 15.08851305 83977,6917.846,95.437,540.638,538.784,0.0
54172.0,STARLINK-5117,PAYLOAD,2024-05-04 01:43:38,15.08842947,0.0002002,53.2146,152.5673,86.6764,273.4457,9.7991e-05,1.272e-05,0.0,0 STARLINK-5117,1 54172U 22141R   24125.07197247  .00001272  00000-0  97991-4 0  9991,2 54172  53.2146 152.5673 0002002  86.6764 273.4457 15.08842947 84015,6917.871,95.437,541.121,538.351,0.0
54172.0,STARLINK-5117,PAYLOAD,2024-05-04 11:15:57,15.08834406,0.0001315,53.2147,150.7833,90.9791,269.1352,-6.273e-05,-1.286e-05,0.0,0 STARLINK-5117,1 54172U 22141R   24125.46941667 -.00001286  00000-0 -62730-4 0  9997,2 54172  53.2147 150.7833 0001315  90.9791 269.1352 15.08834406 84071,6917.897,95.438,540.672,538.853,0.0
54172.0,STARLINK-5117,PAYLOAD,2024-05-05 11:06:44,15.0884228,0.0001302,53.215,146.3224,93.0965,267.0176,0.00011082,1.476e-05,0.0,0 STARLINK-5117,1 54172U 22141R   24126.46301667  .00001476  00000-0  11082-3 0  9990,2 54172  53.2150 146.3224 0001302  93.0965 267.0176 15.08842280 84220,6917.873,95.437,540.639,538.838,0.0
54172.0,STARLINK-5117,PAYLOAD,2024-05-06 10:57:31,15.08845008,0.0001308,53.2146,141.8621,92.3999,267.7143,0.00034295,5.175e-05,0.0,0 STARLINK-5117,1 54172U 22141R   24127.45661983  .00005175  00000-0  34295-3 0  9991,2 54172  53.2146 141.8621 0001308  92.3999 267.7143 15.08845008 84379,6917.865,95.437,540.635,538.825,0.0
54172.0,STARLINK-5117,PAYLOAD,2024-05-07 04:26:46,15.08847515,0.0001358,53.2151,138.5896,104.497,255.6173,0.00026146,3.876e-05,0.0,0 STARLINK-5117,1 54172U 22141R   24128.18525788  .00003876  00000-0  26146-3 0  9996,2 54172  53.2151 138.5896 0001358 104.4970 255.6173 15.08847515 84487,6917.857,95.437,540.662,538.783,0.0
54172.0,STARLINK-5117,PAYLOAD,2024-05-07 07:37:32,15.0884632,0.0001287,53.2146,137.996,90.658,269.456,0.0002112,3.076e-05,0.0,0 STARLINK-5117,1 54172U 22141R   24128.31773808  .00003076  00000-0  21120-3 0  9998,2 54172  53.2146 137.9960 0001287  90.6580 269.4560 15.08846320 84509,6917.861,95.437,540.616,538.836,0.0
54172.0,STARLINK-5117,PAYLOAD,2024-05-07 17:09:51,15.08846362,0.0001306,53.2148,136.2118,90.4273,269.6869,0.00016709,2.373e-05,0.0,0 STARLINK-5117,1 54172U 22141R   24128.71517691  .00002373  00000-0  16709-3 0  9994,2 54172  53.2148 136.2118 0001306  90.4273 269.6869 15.08846362 84563,6917.861,95.437,540.629,538.822,0.0
54172.0,STARLINK-5117,PAYLOAD,2024-05-08 04:17:33,15.08839157,0.0001351,53.215,134.1315,94.5146,265.6,3.9554e-06,-2.25e-06,0.0,0 STARLINK-5117,1 54172U 22141R   24129.17885926 -.00000225  00000-0  39554-5 0  9994,2 54172  53.2150 134.1315 0001351  94.5146 265.6000 15.08839157 84631,6917.883,95.438,540.683,538.813,0.0
54172.0,STARLINK-5117,PAYLOAD,2024-05-08 07:28:19,15.08838461,0.0001344,53.2152,133.5366,92.8666,267.248,9.0485e-06,-1.44e-06,0.0,0 STARLINK-5117,1 54172U 22141R   24129.31134065 -.00000144  00000-0  90485-5 0  9991,2 54172  53.2152 133.5366 0001344  92.8666 267.2480 15.08838461 84651,6917.885,95.438,540.68,538.82,0.0
54172.0,STARLINK-5117,PAYLOAD,2024-05-08 17:00:38,15.08841867,0.000139,53.2156,131.7522,90.2322,269.883,5.5331e-05,5.93e-06,0.0,0 STARLINK-5117,1 54172U 22141R   24129.70877901  .00000593  00000-0  55331-4 0  9994,2 54172  53.2156 131.7522 0001390  90.2322 269.8830 15.08841867 84719,6917.875,95.437,540.701,538.778,0.0
54172.0,STARLINK-5117,PAYLOAD,2024-05-09 04:08:21,15.08819816,0.0001251,53.215,129.6698,104.9296,255.1835,0.00059276,9.153e-05,0.0,0 STARLINK-5117,1 54172U 22141R   24130.17246965  .00009153  00000-0  59276-3 0  9999,2 54172  53.2150 129.6698 0001251 104.9296 255.1835 15.08819816 84781,6917.942,95.439,540.673,538.942,0.0
54172.0,STARLINK-5117,PAYLOAD,2024-05-09 08:54:31,15.08802936,0.0001558,53.2159,128.7788,104.1267,255.9899,0.0011901,0.00018684,0.0,0 STARLINK-5117,1 54172U 22141R   24130.37120122  .00018684  00000-0  11901-2 0  9998,2 54172  53.2159 128.7788 0001558 104.1267 255.9899 15.08802936 84817,6917.994,95.44,540.937,538.781,0.0
54172.0,STARLINK-5117,PAYLOAD,2024-05-09 16:51:25,15.08845009,0.0001413,53.2162,127.2914,88.8187,271.2967,0.00012389,1.685e-05,0.0,0 STARLINK-5117,1 54172U 22141R   24130.70237822  .00001685  00000-0  12389-3 0  9996,2 54172  53.2162 127.2914 0001413  88.8187 271.2967 15.08845009 84865,6917.865,95.437,540.708,538.753,0.0
54172.0,STARLINK-5117,PAYLOAD,2024-05-10 07:09:53,15.08841427,0.0001457,53.2161,124.6154,86.2418,273.8741,0.00014664,2.047e-05,0.0,0 STARLINK-5117,1 54172U 22141R   24131.29854161  .00002047  00000-0  14664-3 0  9993,2 54172  53.2161 124.6154 0001457  86.2418 273.8741 15.08841427 84956,6917.876,95.437,540.749,538.733,0.0
54172.0,STARLINK-5117,PAYLOAD,2024-05-10 23:03:45,15.08839281,0.0001953,53.2164,121.6419,82.4566,277.6648,8.0192e-05,9.88e-06,0.0,0 STARLINK-5117,1 54172U 22141R   24131.96094439  .00000988  00000-0  80192-4 0  9993,2 54172  53.2164 121.6419 0001953  82.4566 277.6648 15.08839281 85058,6917.883,95.438,541.099,538.397,0.0
54172.0,STARLINK-5117,PAYLOAD,2024-05-11 08:36:03,15.0887481,0.0001556,53.2164,119.8567,109.4775,250.6385,0.000626,9.698e-05,0.0,0 STARLINK-5117,1 54172U 22141R   24132.35836898  .00009698  00000-0  62600-3 0  9990,2 54172  53.2164 119.8567 0001556 109.4775 250.6385 15.08874810 85115,6917.774,95.435,540.715,538.563,0.0
54172.0,STARLINK-5117,PAYLOAD,2024-05-11 22:54:31,15.08870017,0.0003295,53.2161,117.1806,87.0865,273.0504,0.00059923,9.269e-05,0.0,0 STARLINK-5117,1 54172U 22141R   24132.95452811  .00009269  00000-0  59923-3 0  9993,2 54172  53.2161 117.1806 0003295  87.0865 273.0504 15.08870017 85209,6917.789,95.436,541.933,537.374,0.0
54172.0,STARLINK-5117,PAYLOAD,2024-05-12 05:16:04,15.08830448,0.000154,53.2153,115.9898,103.5432,256.5732,-0.00027576,-4.673e-05,0.0,0 STARLINK-5117,1 54172U 22141R   24133.21949716 -.00004673  00000-0 -27576-3 0  9993,2 54172  53.2153 115.9898 0001540 103.5432 256.5732 15.08830448 85249,6917.91,95.438,540.84,538.709,0.0
54172.0,STARLINK-5117,PAYLOAD,2024-05-12 08:26:50,15.0883005,0.000147,53.2157,115.3957,103.418,256.6976,-0.00024723,-4.219e-05,0.0,0 STARLINK-5117,1 54172U 22141R   24133.35197820 -.00004219  00000-0 -24723-3 0  9996,2 54172  53.2157 115.3957 0001470 103.4180 256.6976 15.08830050 85266,6917.911,95.438,540.793,538.759,0.0
54172.0,STARLINK-5117,PAYLOAD,2024-05-12 16:23:46,15.08829136,0.0001492,53.2159,113.9093,103.951,256.1648,-0.00015168,-2.7e-05,0.0,0 STARLINK-5117,1 54172U 22141R   24133.68318107 -.00002700  00000-0 -15168-3 0  9991,2 54172  53.2159 113.9093 0001492 103.9510 256.1648 15.08829136 85319,6917.914,95.438,540.811,538.746,0.0
54172.0,STARLINK-5117,PAYLOAD,2024-05-13 08:17:39,15.08820166,0.0001576,53.2165,110.9358,109.1612,250.9551,0.00025676,3.799e-05,0.0,0 STARLINK-5117,1 54172U 22141R   24134.34559282  .00003799  00000-0  25676-3 0  9998,2 54172  53.2165 110.9358 0001576 109.1612 250.9551 15.08820166 85411,6917.941,95.439,540.896,538.716,0.0
54172.0,STARLINK-5117,PAYLOAD,2024-05-13 22:36:07,15.08830242,0.0001577,53.2168,108.2597,109.0879,251.0284,0.00036149,5.468e-05,0.0,0 STARLINK-5117,1 54172U 22141R   24134.94175652  .00005468  00000-0  36149-3 0  9991,2 54172  53.2168 108.2597 0001577 109.0879 251.0284 15.08830242 85505,6917.91,95.438,540.866,538.684,0.0
54172.0,STARLINK-5117,PAYLOAD,2024-05-14 04:57:40,15.08835169,0.0001544,53.2168,107.0709,108.5223,251.5937,0.00039479,6e-05,0.0,0 STARLINK-5117,1 54172U 22141R   24135.20671680  .00006000  00000-0  39479-3 0  9995,2 54172  53.2168 107.0709 0001544 108.5223 251.5937 15.08835169 85545,6917.895,95.438,540.828,538.692,0.0
